[{"OBJECT_NAME":"PRAETORIAN SDA_609","OBJECT_ID":"2025-203H","EPOCH":"2026-03-09T13:17:17.896704","MEAN_MOTION":13.84314664,"ECCENTRICITY":0.0008251,"INCLINATION":81.302,"RA_OF_ASC_NODE":103.0603,"ARG_OF_PERICENTER":102.7158,"MEAN_ANOMALY":257.4922,"EPHEMERIS_TYPE":0,"CLASSIFICATION_TYPE":"U","NORAD_CAT_ID":65572,"ELEMENT_SET_NO":999,"REV_AT_EPOCH":2491,"BSTAR":0.00016281,"MEAN_MOTION_DOT":1.94e-6,"MEAN_MOTION_DDOT":0},{"OBJECT_NAME":"NIMBUS 2 DEB","OBJECT_ID":"1966-040S","EPOCH":"2026-03-08T17:32:13.954848","MEAN_MOTION":13.76697979,"ECCENTRICITY":0.00342677,"INCLINATION":100.1873,"RA_OF_ASC_NODE":347.8731,"ARG_OF_PERICENTER":273.5594,"MEAN_ANOMALY":116.434,"EPHEMERIS_TYPE":0,"CLASSIFICATION_TYPE":"U","NORAD_CAT_ID":28204,"ELEMENT_SET_NO":999,"REV_AT_EPOCH":61684,"BSTAR":0.0061928091,"MEAN_MOTION_DOT":6.063e-5,"MEAN_MOTION_DDOT":0}]
